{
    "week": 295,
    "satellites": [
        {
            "Name": "BEIDOU-3 M24 (C46)",
            "Line1": "1 44542U 19061A   24335.43977221  .00000094  00000+0  00000+0 0  9999",
            "Line2": "2 44542  54.4242 201.7457 0009079  14.6315 345.5026  1.86229462 35297",
            "SatelliteNumber": "44542",
            "Classification": "U",
            "LaunchYear": "19",
            "LaunchNumber": "061",
            "PieceOfLaunch": "A",
            "EpochYear": "24",
            "EpochDay": 335.43977221,
            "FirstDerivativeMeanMotion": 9.4e-07,
            "SecondDerivativeMeanMotion": "00000+0",
            "BSTAR": "00000+0",
            "SetNumber": "999",
            "Inclination": 54.4242,
            "RAAN": 201.7457,
            "Eccentricity": 0.0009079,
            "ArgumentOfPerigee": 14.6315,
            "MeanAnomaly": 345.5026,
            "MeanMotion": 1.86229462,
            "RevolutionNumber": "3529"
        },
        {
            "Name": "BEIDOU-3 M23 (C45)",
            "Line1": "1 44543U 19061B   24335.28628291  .00000094  00000+0  00000+0 0  9993",
            "Line2": "2 44543  54.4225 201.7198 0005764  11.6433 158.1873  1.86229744 35297",
            "SatelliteNumber": "44543",
            "Classification": "U",
            "LaunchYear": "19",
            "LaunchNumber": "061",
            "PieceOfLaunch": "B",
            "EpochYear": "24",
            "EpochDay": 335.28628291,
            "FirstDerivativeMeanMotion": 9.4e-07,
            "SecondDerivativeMeanMotion": "00000+0",
            "BSTAR": "00000+0",
            "SetNumber": "999",
            "Inclination": 54.4225,
            "RAAN": 201.7198,
            "Eccentricity": 0.0005764,
            "ArgumentOfPerigee": 11.6433,
            "MeanAnomaly": 158.1873,
            "MeanMotion": 1.86229744,
            "RevolutionNumber": "3529"
        },
        {
            "Name": "BEIDOU-3 IGSO-3 (C40)",
            "Line1": "1 44709U 19073A   24335.28026166 -.00000204  00000+0  00000+0 0  9997",
            "Line2": "2 44709  55.7706 286.9630 0040174 190.3750 169.4845  1.00251507 18806",
            "SatelliteNumber": "44709",
            "Classification": "U",
            "LaunchYear": "19",
            "LaunchNumber": "073",
            "PieceOfLaunch": "A",
            "EpochYear": "24",
            "EpochDay": 335.28026166,
            "FirstDerivativeMeanMotion": -2.04e-06,
            "SecondDerivativeMeanMotion": "00000+0",
            "BSTAR": "00000+0",
            "SetNumber": "999",
            "Inclination": 55.7706,
            "RAAN": 286.963,
            "Eccentricity": 0.0040174,
            "ArgumentOfPerigee": 190.375,
            "MeanAnomaly": 169.4845,
            "MeanMotion": 1.00251507,
            "RevolutionNumber": "1880"
        },
        {
            "Name": "BEIDOU-3 M22 (C44)",
            "Line1": "1 44793U 19078A   24334.74701223 -.00000071  00000+0  00000+0 0  9991",
            "Line2": "2 44793  54.4349 319.6045 0005559  11.2207 348.7914  1.86232106 34139",
            "SatelliteNumber": "44793",
            "Classification": "U",
            "LaunchYear": "19",
            "LaunchNumber": "078",
            "PieceOfLaunch": "A",
            "EpochYear": "24",
            "EpochDay": 334.74701223,
            "FirstDerivativeMeanMotion": -7.1e-07,
            "SecondDerivativeMeanMotion": "00000+0",
            "BSTAR": "00000+0",
            "SetNumber": "999",
            "Inclination": 54.4349,
            "RAAN": 319.6045,
            "Eccentricity": 0.0005559,
            "ArgumentOfPerigee": 11.2207,
            "MeanAnomaly": 348.7914,
            "MeanMotion": 1.86232106,
            "RevolutionNumber": "3413"
        },
        {
            "Name": "BEIDOU-3 M21 (C43)",
            "Line1": "1 44794U 19078B   24335.41331661 -.00000068  00000+0  00000+0 0  9998",
            "Line2": "2 44794  54.4078 319.5538 0003765 355.5636   4.4316  1.86232625 34152",
            "SatelliteNumber": "44794",
            "Classification": "U",
            "LaunchYear": "19",
            "LaunchNumber": "078",
            "PieceOfLaunch": "B",
            "EpochYear": "24",
            "EpochDay": 335.41331661,
            "FirstDerivativeMeanMotion": -6.8e-07,
            "SecondDerivativeMeanMotion": "00000+0",
            "BSTAR": "00000+0",
            "SetNumber": "999",
            "Inclination": 54.4078,
            "RAAN": 319.5538,
            "Eccentricity": 0.0003765,
            "ArgumentOfPerigee": 355.5636,
            "MeanAnomaly": 4.4316,
            "MeanMotion": 1.86232625,
            "RevolutionNumber": "3415"
        },
        {
            "Name": "BEIDOU-3 M19 (C41)",
            "Line1": "1 44864U 19090A   24335.79265704 -.00000030  00000+0  00000+0 0  9994",
            "Line2": "2 44864  56.0661  81.4923 0017032 278.4821 167.8826  1.86231574 33735",
            "SatelliteNumber": "44864",
            "Classification": "U",
            "LaunchYear": "19",
            "LaunchNumber": "090",
            "PieceOfLaunch": "A",
            "EpochYear": "24",
            "EpochDay": 335.79265704,
            "FirstDerivativeMeanMotion": -3e-07,
            "SecondDerivativeMeanMotion": "00000+0",
            "BSTAR": "00000+0",
            "SetNumber": "999",
            "Inclination": 56.0661,
            "RAAN": 81.4923,
            "Eccentricity": 0.0017032,
            "ArgumentOfPerigee": 278.4821,
            "MeanAnomaly": 167.8826,
            "MeanMotion": 1.86231574,
            "RevolutionNumber": "3373"
        },
        {
            "Name": "BEIDOU-3 M20 (C42)",
            "Line1": "1 44865U 19090B   24335.47247861 -.00000032  00000+0  00000+0 0  9996",
            "Line2": "2 44865  56.0675  81.5366 0014309 291.5779  29.8168  1.86231555 33718",
            "SatelliteNumber": "44865",
            "Classification": "U",
            "LaunchYear": "19",
            "LaunchNumber": "090",
            "PieceOfLaunch": "B",
            "EpochYear": "24",
            "EpochDay": 335.47247861,
            "FirstDerivativeMeanMotion": -3.2e-07,
            "SecondDerivativeMeanMotion": "00000+0",
            "BSTAR": "00000+0",
            "SetNumber": "999",
            "Inclination": 56.0675,
            "RAAN": 81.5366,
            "Eccentricity": 0.0014309,
            "ArgumentOfPerigee": 291.5779,
            "MeanAnomaly": 29.8168,
            "MeanMotion": 1.86231555,
            "RevolutionNumber": "3371"
        },
        {
            "Name": "BEIDOU-3 G2 (C60)",
            "Line1": "1 45344U 20017A   24335.69910472 -.00000114  00000+0  00000+0 0  9990",
            "Line2": "2 45344   2.5469  35.3621 0004107 219.0487 147.3598  1.00273105 17623",
            "SatelliteNumber": "45344",
            "Classification": "U",
            "LaunchYear": "20",
            "LaunchNumber": "017",
            "PieceOfLaunch": "A",
            "EpochYear": "24",
            "EpochDay": 335.69910472,
            "FirstDerivativeMeanMotion": -1.14e-06,
            "SecondDerivativeMeanMotion": "00000+0",
            "BSTAR": "00000+0",
            "SetNumber": "999",
            "Inclination": 2.5469,
            "RAAN": 35.3621,
            "Eccentricity": 0.0004107,
            "ArgumentOfPerigee": 219.0487,
            "MeanAnomaly": 147.3598,
            "MeanMotion": 1.00273105,
            "RevolutionNumber": "1762"
        },
        {
            "Name": "BEIDOU-3 G3 (C61)",
            "Line1": "1 45807U 20040A   24335.50035325 -.00000326  00000+0  00000+0 0  9990",
            "Line2": "2 45807   1.1056  56.7256 0003541 302.7687   1.0964  1.00271465 16414",
            "SatelliteNumber": "45807",
            "Classification": "U",
            "LaunchYear": "20",
            "LaunchNumber": "040",
            "PieceOfLaunch": "A",
            "EpochYear": "24",
            "EpochDay": 335.50035325,
            "FirstDerivativeMeanMotion": -3.26e-06,
            "SecondDerivativeMeanMotion": "00000+0",
            "BSTAR": "00000+0",
            "SetNumber": "999",
            "Inclination": 1.1056,
            "RAAN": 56.7256,
            "Eccentricity": 0.0003541,
            "ArgumentOfPerigee": 302.7687,
            "MeanAnomaly": 1.0964,
            "MeanMotion": 1.00271465,
            "RevolutionNumber": "1641"
        },
        {
            "Name": "BEIDOU-3 G4 (C62)",
            "Line1": "1 56564U 23066A   24335.60588267 -.00000081  00000+0  00000+0 0  9990",
            "Line2": "2 56564   1.7112 289.0725 0004319 256.8930 262.1849  1.00271524  5743",
            "SatelliteNumber": "56564",
            "Classification": "U",
            "LaunchYear": "23",
            "LaunchNumber": "066",
            "PieceOfLaunch": "A",
            "EpochYear": "24",
            "EpochDay": 335.60588267,
            "FirstDerivativeMeanMotion": -8.1e-07,
            "SecondDerivativeMeanMotion": "00000+0",
            "BSTAR": "00000+0",
            "SetNumber": "999",
            "Inclination": 1.7112,
            "RAAN": 289.0725,
            "Eccentricity": 0.0004319,
            "ArgumentOfPerigee": 256.893,
            "MeanAnomaly": 262.1849,
            "MeanMotion": 1.00271524,
            "RevolutionNumber": "574"
        }
    ]
}